[{"OBJECT_NAME":"LEMUR-2-LEIA-PHILIP","OBJECT_ID":"2025-052AN","EPOCH":"2026-03-09T22:47:11.533920","MEAN_MOTION":14.96639353,"ECCENTRICITY":0.00032822,"INCLINATION":97.6941,"RA_OF_ASC_NODE":322.5414,"ARG_OF_PERICENTER":181.695,"MEAN_ANOMALY":178.4261,"EPHEMERIS_TYPE":0,"CLASSIFICATION_TYPE":"U","NORAD_CAT_ID":63246,"ELEMENT_SET_NO":999,"REV_AT_EPOCH":5382,"BSTAR":0.00057534341,"MEAN_MOTION_DOT":6.505e-5,"MEAN_MOTION_DDOT":0},{"OBJECT_NAME":"STARLINK-34431","OBJECT_ID":"2025-126K","EPOCH":"2026-03-09T22:52:30.388800","MEAN_MOTION":14.983227,"ECCENTRICITY":0.00030241,"INCLINATION":70.0026,"RA_OF_ASC_NODE":33.7034,"ARG_OF_PERICENTER":273.2517,"MEAN_ANOMALY":86.8296,"EPHEMERIS_TYPE":0,"CLASSIFICATION_TYPE":"U","NORAD_CAT_ID":64353,"ELEMENT_SET_NO":999,"REV_AT_EPOCH":4072,"BSTAR":0.00067110135,"MEAN_MOTION_DOT":7.922e-5,"MEAN_MOTION_DDOT":0}]
